[Satellite]
VERSION=1.1
NAME=FLOCK 3P-68
NICKNAME=FLOCK 3P-68
TLE1=1 42003U 17008BH  17186.15590330  .00001592  00000-0  71497-4 0  9993
TLE2=2 42003  97.4949 247.4807 0009681 139.4570 220.7389 15.22606368 20910
